STARLINK-30157          
1 57512U 23113T   26069.25002315  .01747823  00000+0  62751-1 0  9994
2 57512  43.0001 347.0215 0001552 312.6480  25.5434 15.24994565  5771
STARLINK-30168          
1 57513U 23113U   26069.24397975  .00001314  00000+0  58651-4 0  9997
2 57513  43.0006  12.5984 0001451 262.7322  97.3364 15.26745285143601
STARLINK-30231          
1 57514U 23113V   26069.25002315  .00068321  00000+0  25354-2 0  9993
2 57514  43.0016  12.5522 0001463 276.5442 129.1849 15.26711120  5778
STARLINK-30081          
1 57515U 23113W   26069.25002315  .00067005  00000+0  24265-2 0  9992
2 57515  43.0059  12.5938 0001350 287.9426 108.4726 15.27524920  5731
STARLINK-30149          
1 57516U 23113X   26069.25002315  .00069294  00000+0  25712-2 0  9993
2 57516  43.0012  12.5461 0002008 268.6916 144.4228 15.26708635  5781
STARLINK-30259          
1 57521U 23115A   26069.22896196  .00005127  00000+0  20069-3 0  9992
2 57521  42.9982 358.5581 0000689 286.6666  73.4110 15.26740740143655
STARLINK-30256          
1 57522U 23115B   26069.12114345  .00000558  00000+0  30502-4 0  9998
2 57522  43.0048 359.4622 0002574 251.4777 108.5794 15.26734889142413
STARLINK-30261          
1 57523U 23115C   26069.17994687 -.00000018  00000+0  88571-5 0  9991
2 57523  43.0030 359.0440 0001316 269.0343  91.0358 15.27577636142425
STARLINK-30260          
1 57524U 23115D   26069.16197464  .00002366  00000+0  95482-4 0  9994
2 57524  42.9982 358.9305 0000791 270.2371  89.8390 15.27575371142424
STARLINK-30253          
1 57525U 23115E   26069.17352923 -.00005198  00000+0 -17956-3 0  9996
2 57525  42.9990 359.0020 0001043 264.4377  95.6355 15.27567554142422
STARLINK-30257          
1 57526U 23115F   26069.16968594  .00002278  00000+0  92300-4 0  9994
2 57526  42.9956 358.9955 0000248 232.5658 127.5171 15.27561544142428
STARLINK-30250          
1 57527U 23115G   26069.17377372 -.00000755  00000+0 -18487-4 0  9998
2 57527  42.9994 358.9994 0001406 255.3745 104.6951 15.26720109143326
STARLINK-30269          
1 57528U 23115H   26069.19249487  .00003535  00000+0  14146-3 0  9990
2 57528  43.0006 359.1645 0001554 281.2796  78.7880 15.26730821142421
STARLINK-30266          
1 57529U 23115J   26069.14783228  .00000636  00000+0  32638-4 0  9998
2 57529  43.0020 358.8161 0002014 260.3515  99.7110 15.27570491142421
STARLINK-30270          
1 57530U 23115K   26069.20538499  .00057325  00000+0  20973-2 0  9999
2 57530  43.0032 358.4026 0001462 259.7594 100.3093 15.27252878142433
STARLINK-30268          
1 57531U 23115L   26069.18861867  .00001040  00000+0  48470-4 0  9992
2 57531  43.0040 359.1264 0001024 265.2001  94.8733 15.26731267142424
STARLINK-30251          
1 57532U 23115M   26069.20858160  .00002120  00000+0  88698-4 0  9994
2 57532  43.0029 358.4192 0001301 267.2543  92.8159 15.26742573142438
STARLINK-30254          
1 57533U 23115N   26069.10564617  .00007133  00000+0  26877-3 0  9994
2 57533  43.0012 100.8059 0000787 225.0977 134.9811 15.27543116145420
STARLINK-30264          
1 57534U 23115P   26068.40791260 -.00000064  00000+0  71732-5 0  9992
2 57534  42.9960 210.4823 0000753 146.8642 213.2257 15.27567754145317
STARLINK-30166          
1 57602U 23119A   26069.25002315  .01094372  00000+0  45090-1 0  9991
2 57602  43.0000  78.0102 0001281 290.9719 181.4099 15.20739392  5789
STARLINK-30223          
1 57603U 23119B   26069.06294352  .00007077  00000+0  48768-3 0  9997
2 57603  43.0016  79.4378 0001377 142.4299 217.6642 15.06271423143135
STARLINK-30218          
1 57604U 23119C   26069.25002315  .01200119  00000+0  51551-1 0  9990
2 57604  42.9998  78.0273 0001790 311.3249 152.3489 15.19033213  5726
STARLINK-30138          
1 57605U 23119D   26069.25002315  .00862900  00000+0  37348-1 0  9990
2 57605  43.0014  78.0228 0001686 277.5687 190.0616 15.19242644  5777
STARLINK-30255          
1 57606U 23119E   26069.25002315  .00611211  00000+0  28777-1 0  9994
2 57606  43.0009  77.6638 0001533 279.1528 339.8679 15.16743701  5673
STARLINK-30252          
1 57607U 23119F   26069.02163922 -.00002719  00000+0 -91733-4 0  9996
2 57607  43.0023  64.7079 0001229 276.8732  83.1980 15.26730121143310
STARLINK-30258          
1 57608U 23119G   26069.25002315  .01186641  00000+0  59387-1 0  9992
2 57608  43.0005  78.2429 0002170 277.3220  95.7548 15.13685794  5726
STARLINK-30174          
1 57609U 23119H   26069.25002315  .01227240  00000+0  52601-1 0  9996
2 57609  43.0001  77.7446 0001618 240.0456 341.4517 15.19039619  5676
STARLINK-30248          
1 57610U 23119J   26069.25002315  .01177196  00000+0  50897-1 0  9997
2 57610  42.9999  77.7577 0001171 268.4428 310.1645 15.18863104  5672
STARLINK-30052          
1 57611U 23119K   26069.25002315  .01184611  00000+0  50514-1 0  9994
2 57611  42.9996  77.6358 0001624 269.0719   0.1788 15.19326335  5775
STARLINK-30245          
1 57612U 23119L   26069.25002315  .00945358  00000+0  41295-1 0  9993
2 57612  43.0011  77.7959 0001342 263.2063 298.6020 15.18674291  5677
STARLINK-30041          
1 57613U 23119M   26069.25002315  .01267959  00000+0  59115-1 0  9999
2 57613  43.0011  77.8529 0001043 279.1616 257.5702 15.16483335  5676
STARLINK-30244          
1 57614U 23119N   26069.25002315  .01379696  00000+0  64906-1 0  9996
2 57614  43.0019  77.8848 0001266 248.3163 273.6544 15.15918473  5725
STARLINK-30246          
1 57615U 23119P   26069.25002315  .01212096  00000+0  59214-1 0  9993
2 57615  43.0011  77.8371 0000957 304.7763 232.6713 15.14955871  5622
STARLINK-30075          
1 57616U 23119Q   26069.25002315  .01063994  00000+0  40945-1 0  9996
2 57616  43.0002  77.8343 0001618 221.3318 326.9351 15.23144695  5783
STARLINK-30148          
1 57617U 23119R   26069.25002315  .00809447  00000+0  31439-1 0  9995
2 57617  43.0027  77.9285 0001635 275.9580 234.2795 15.22691798  5785
STARLINK-30249          
1 57618U 23119S   26069.25002315  .01112797  00000+0  42557-1 0  9995
2 57618  42.9998  77.7705 0001838 252.6467 322.5875 15.23235998  5784
STARLINK-30141          
1 57620U 23119U   26069.25002315  .00839075  00000+0  33945-1 0  9993
2 57620  43.0019  77.8905 0001583 273.4978 251.3799 15.21635721  5781
STARLINK-30150          
1 57621U 23119V   26069.25002315  .01082877  00000+0  43723-1 0  9990
2 57621  43.0000  77.7940 0001413 247.1554 317.3376 15.21462036  5736
STARLINK-30056          
1 57622U 23119W   26069.25002315  .00996271  00000+0  43321-1 0  9996
2 57622  43.0007  77.8788 0001263 300.5998 217.6873 15.19129085  5784
STARLINK-30100          
1 57623U 23119X   26069.25002315  .01112691  00000+0  49477-1 0  9992
2 57623  43.0001  78.0644 0001610 289.9838 159.9527 15.18054144  5788
STARLINK-30309          
1 57632U 23122A   26068.41243341 -.00004488  00000+0 -15787-3 0  9993
2 57632  42.9987  94.1486 0001094 299.3962  60.6780 15.26712855142163
STARLINK-30306          
1 57633U 23122B   26069.13674330  .00002145  00000+0  89631-4 0  9996
2 57633  43.0016  90.1219 0001530 265.1985  94.8692 15.26738194142277
STARLINK-30323          
1 57634U 23122C   26069.25002315  .01253955  00000+0  55631-1 0  9996
2 57634  43.0000  77.6647 0001578 249.1107 342.8187 15.18254335  5775
STARLINK-30329          
1 57635U 23122D   26069.07760588  .00004862  00000+0  19076-3 0  9995
2 57635  42.9973  90.5355 0000626 250.8672 109.2111 15.26745936142261
STARLINK-30330          
1 57636U 23122E   26069.25002315 -.00001055  00000+0 -29639-4 0  9993
2 57636  43.0000  89.6184 0001321 271.8327 295.0435 15.26744106  5772
STARLINK-30311          
1 57637U 23122F   26069.09525504  .00000096  00000+0  13249-4 0  9998
2 57637  43.0034  89.8139 0000952 260.4742  99.6001 15.26726616142276
STARLINK-30328          
1 57638U 23122G   26069.25002315  .01170562  00000+0  51363-1 0  9990
2 57638  42.9995  77.5804 0001398 270.4427 334.7911 15.18367441  5729
STARLINK-30326          
1 57639U 23122H   26069.25002315  .00000682  00000+0  34301-4 0  9991
2 57639  43.0011  89.3366 0001710 257.9481  63.4382 15.27581672  5770
STARLINK-30324          
1 57640U 23122J   26069.25002315 -.00002233  00000+0 -71610-4 0  9993
2 57640  42.9997  89.5794 0001426 273.3339 309.0219 15.27589171  5789
STARLINK-30312          
1 57641U 23122K   26069.29022802  .00067342  00000+0  24754-2 0  9996
2 57641  42.9922  88.6895 0000598 325.4345  34.6467 15.27030257142307
STARLINK-30263          
1 57642U 23122L   26069.09955313 -.00006505  00000+0 -23310-3 0  9991
2 57642  42.9970  89.8381 0001589 158.1544 201.9375 15.26730178142278
STARLINK-30280          
1 57643U 23122M   26069.25002315  .00002622  00000+0  10473-3 0  9995
2 57643  43.0010  89.1590 0001391 264.9907 134.1906 15.27591176  5775
STARLINK-30247          
1 57644U 23122N   26069.25002315 -.00007336  00000+0 -26405-3 0  9997
2 57644  43.0006  89.0864 0001153 254.8594 176.8399 15.26742911  5784
STARLINK-30277          
1 57645U 23122P   26068.99390966  .00005735  00000+0  21777-3 0  9996
2 57645  43.0022 308.6807 0001578 266.6463  93.4208 15.27578304143923
STARLINK-30265          
1 57646U 23122Q   26069.28990751 -.00000016  00000+0  90638-5 0  9990
2 57646  42.9980  88.6905 0000188 288.0188  72.0642 15.26738489142304
STARLINK-30286          
1 57647U 23122R   26069.25002315 -.00006776  00000+0 -24305-3 0  9994
2 57647  43.0006  89.1506 0001213 256.0292 146.4787 15.26752833  5785
STARLINK-30243          
1 57648U 23122S   26069.25002315  .00047445  00000+0  17682-2 0  9990
2 57648  43.0060  89.4381 0001576 278.5546   2.4564 15.26719515  5529
STARLINK-30299          
1 57650U 23122U   26069.25002315 -.00006526  00000+0 -23372-3 0  9994
2 57650  43.0013  89.2255 0001092 273.9371  96.6033 15.26751936  5480
STARLINK-30294          
1 57651U 23122V   26069.25002315  .01251546  00000+0  53283-1 0  9990
2 57651  43.0014  77.8326 0001091 278.6788 247.8898 15.19208615  5726
STARLINK-30276          
1 57652U 23122W   26069.11112054  .00004223  00000+0  16706-3 0  9996
2 57652  43.0021  89.9234 0001483 275.7470  84.3213 15.26736034142274
